[{"OBJECT_NAME":"STARLINK-30910","OBJECT_ID":"2023-178C","EPOCH":"2026-03-09T01:11:19.380768","MEAN_MOTION":15.30193467,"ECCENTRICITY":7.766e-5,"INCLINATION":53.1613,"RA_OF_ASC_NODE":4.0336,"ARG_OF_PERICENTER":92.6274,"MEAN_ANOMALY":267.4816,"EPHEMERIS_TYPE":0,"CLASSIFICATION_TYPE":"U","NORAD_CAT_ID":58376,"ELEMENT_SET_NO":999,"REV_AT_EPOCH":12979,"BSTAR":6.876037e-6,"MEAN_MOTION_DOT":-1.55e-6,"MEAN_MOTION_DDOT":0},{"OBJECT_NAME":"STARLINK-31704","OBJECT_ID":"2024-076Y","EPOCH":"2026-03-09T22:00:01.999584","MEAN_MOTION":15.30892355,"ECCENTRICITY":0.00079744,"INCLINATION":42.9978,"RA_OF_ASC_NODE":323.2923,"ARG_OF_PERICENTER":240.5046,"MEAN_ANOMALY":200.4144,"EPHEMERIS_TYPE":0,"CLASSIFICATION_TYPE":"U","NORAD_CAT_ID":59586,"ELEMENT_SET_NO":999,"REV_AT_EPOCH":581,"BSTAR":0.0024766131,"MEAN_MOTION_DOT":0.00076042,"MEAN_MOTION_DDOT":0}]
